GALAXY 36 (G-36)        
1 54742U 22170B   24117.03334503 -.00000170  00000+0  00000+0 0  9997
2 54742   0.0149 255.5450 0002786 173.0649  68.9274  1.00272844  4937
METEOSAT-12 (MTG-I1)    
1 54743U 22170C   24119.55591428  .00000003  00000+0  00000+0 0  9992
2 54743   0.4412  29.0337 0001307  33.9830 353.7496  1.00274533  5161
SHIJIAN-23 (SJ-23)      
1 55131U 23002A   24119.73036715 -.00000042  00000+0  00000+0 0  9996
2 55131   1.7042  88.3154 0001843 335.7059 132.1600  1.00063874  4879
USA 340                 
1 55138U 22144E   24115.64301600 -.00000281  00000+0  00000+0 0  9998
2 55138   3.6626  65.9551 0001631  27.3289 110.7014  0.99556262  3922
USA 342                 
1 55263U 23008A   24118.34215911  .00000152  00000+0  00000+0 0  9992
2 55263   0.0116 354.8397 0000319 277.8177  90.3424  1.00273438  4691
LDPE-3A                 
1 55264U 23008B   24119.40159428 -.00000268  00000+0  00000+0 0  9990
2 55264   1.1178  87.9306 0001413  18.0233 198.2322  1.00631011  3992
ELEKTRO-L 4             
1 55506U 23016A   24118.93821181 -.00000047  00000+0  00000+0 0  9992
2 55506   0.1234  90.6035 0001755 187.3276  82.0619  1.00268729  4508
AMAZONAS NEXUS          
1 55508U 23017A   24111.80049440 -.00000279  00000+0  00000+0 0  9991
2 55508   0.0176  32.9489 0005589   2.0222  41.5596  1.00266637  4363
CHINASAT 26 (ZX 26)     
1 55686U 23023A   24117.43383071 -.00000339  00000+0  00000+0 0  9998
2 55686   0.0713  75.5652 0003780 352.0804  68.5980  1.00269804  4395
LUCH-5X (OLYMP-K 2)     
1 55841U 23031A   24119.67688115  .00000041  00000+0  00000+0 0  9994
2 55841   0.0461  27.5686 0001216  53.7535  24.2156  1.00272157  4120
GAOFEN-13 02            
1 55912U 23036A   24119.59947921 -.00000223  00000+0  00000+0 0  9995
2 55912   2.1311 304.7566 0003335 324.5320 310.2230  1.00275255  4277
SES-18                  
1 55970U 23038A   24119.58998418 -.00000091  00000+0  00000+0 0  9990
2 55970   0.0144 253.6970 0001152  96.3591 336.2885  1.00271685  4280
SES-19                  
1 55971U 23038B   24117.95466747  .00000101  00000+0  00000+0 0  9996
2 55971   0.0161 282.7737 0001865 120.8451  20.6171  1.00274897  4238
INTELSAT 40E (IS-40E)   
1 56174U 23052A   24119.32327455 -.00000164  00000+0  00000+0 0  9993
2 56174   0.0149 194.2468 0001590 252.7905 155.1345  1.00271491  4001
VIASAT-3                
1 56370U 23060A   24117.38938205 -.00000171  00000+0  00000+0 0  9993
2 56370   0.0079 254.7169 0000431 128.4174 243.0004  1.00271743  3605
ARCTURUS                
1 56371U 23060B   24119.57166536 -.00000107  00000+0  00000+0 0  9996
2 56371   0.7582  88.9632 0000724  47.2633   4.5853  1.00272541  3640
GS-1                    
1 56372U 23060C   24113.78072464 -.00000296  00000+0  00000+0 0  9999
2 56372   0.6922  88.0291 0002419 296.7870 222.0453  0.99773097   141
BEIDOU-3 G4             
1 56564U 23066A   24119.61228189 -.00000103  00000+0  00000+0 0  9990
2 56564   2.2482 288.2205 0004571 188.6355 120.7140  1.00272052  3575
ARABSAT-7B (BADR-8)     
1 56757U 23075A   24117.48569618  .00000159  00000+0  00000+0 0  9992
2 56757   0.0773  29.7944 0005503 342.3278  43.7041  1.00272442  3291
IRNSS-1J (NVS-01)       
1 56759U 23076A   24119.48521541 -.00000329  00000+0  00000+0 0  9990
2 56759   4.1265 267.2965 0005219  23.8495 230.0330  1.00269131  3295
NUSANTARA TIGA (SATRIA) 
1 57045U 23086A   24117.62665878 -.00000221  00000+0  00000+0 0  9997
2 57045   0.0425 316.5998 0004937  22.0503 248.0565  1.00268625  1922
H2SAT (HEINRICH HERTZ)  
1 57213U 23093A   24117.12271720  .00000015  00000+0  00000+0 0  9996
2 57213   0.0155 202.8541 0001063 323.5436  92.8902  1.00270838  3078
SYRACUSE 4B             
1 57214U 23093B   24116.91160286 -.00000039  00000+0  00000+0 0  9994
2 57214   0.0129 226.5339 0000401 117.1073 192.3807  1.00270780  3770
JUPITER 3 (ECHOSTAR 24) 
1 57479U 23108A   24116.66961382 -.00000134  00000+0  00000+0 0  9998
2 57479   0.0104 262.3202 0001214 135.6785 322.0240  1.00271682  2809
GALAXY 37 (G-37)        
1 57493U 23112A   24119.57050223  .00000058  00000+0  00000+0 0  9999
2 57493   0.0218   5.1008 0002140  37.7292 252.5819  1.00271229  2729
LUDI TANCE-4 01A        
1 57624U 23120A   24118.74979981 -.00000175  00000+0  00000+0 0  9994
2 57624  15.7987 212.9447 0003184 172.8304 190.0934  1.00273692  2720
TJS-10                  
1 58204U 23169A   24119.75356025  .00000013  00000+0  00000+0 0  9992
2 58204   0.5214  88.6065 0007179 278.4186 294.6907  1.00272895  1851
CHINASAT 6E (ZX 6E)     
1 58253U 23172A   24119.57914931 -.00000352  00000+0  00000+0 0  9993
2 58253   0.0112 115.4371 0004138 327.0648  98.5357  1.00270094  1840
YAOGAN-41               
1 58582U 23197A   24119.54458917 -.00000356  00000+0  00000+0 0  9993
2 58582   4.7091 307.7270 0017752 166.5304  61.9451  1.00264983  1509
INSAT-3DS               
1 58990U 24033A   24119.57262260 -.00000155  00000+0  00000+0 0  9990
2 58990   0.1635  87.8625 0011941 359.6166  58.7019  1.00271080   476
MERAH PUTIH 2           
1 58995U 24035A   24119.43591140 -.00000348  00000+0  00000+0 0  9998
2 58995   0.0221 117.6142 0001401 289.5500  79.6260  1.00272005   771
TJS-11                  
1 59020U 24037A   24119.74736003 -.00000363  00000+0  00000+0 0  9990
2 59020   5.4175 321.2151 0004578 146.3838 138.8603  1.00266836   788
HULIANWAN GAOGUI-01 (H*)
1 59069U 24040A   24117.48717556  .00000170  00000+0  00000+0 0  9993
2 59069   0.0443  63.5763 0003734 344.4527  16.0095  1.00272388   437
